{
    "links": {
        "self": "http://www.neowsapp.com/rest/v1/neo/3576468?api_key=iIulBulltgU6a56xZRHN4H3l9WmuAYTsLGpBGhQ2"
    },
    "id": "3576468",
    "neo_reference_id": "3576468",
    "name": "(2011 QE2)",
    "designation": "2011 QE2",
    "nasa_jpl_url": "http://ssd.jpl.nasa.gov/sbdb.cgi?sstr=3576468",
    "absolute_magnitude_h": 22.1,
    "estimated_diameter": {
        "kilometers": {
            "estimated_diameter_min": 0.1010543415,
            "estimated_diameter_max": 0.2259643771
        },
        "meters": {
            "estimated_diameter_min": 101.054341542,
            "estimated_diameter_max": 225.9643771094
        },
        "miles": {
            "estimated_diameter_min": 0.0627922373,
            "estimated_diameter_max": 0.140407711
        },
        "feet": {
            "estimated_diameter_min": 331.5431259047,
            "estimated_diameter_max": 741.3529669956
        }
    },
    "is_potentially_hazardous_asteroid": false,
    "close_approach_data": [
        {
            "close_approach_date": "2011-08-18",
            "close_approach_date_full": "2011-Aug-18 20:25",
            "epoch_date_close_approach": 1313699100000,
            "relative_velocity": {
                "kilometers_per_second": "4.4530818982",
                "kilometers_per_hour": "16031.0948336284",
                "miles_per_hour": "9961.0988981509"
            },
            "miss_distance": {
                "astronomical": "0.2339090188",
                "lunar": "90.9906083132",
                "kilometers": "34992290.986269956",
                "miles": "21743201.3732231528"
            },
            "orbiting_body": "Earth"
        }
    ],
    "orbital_data": {
        "orbit_id": "16",
        "orbit_determination_date": "2020-07-08 06:49:56",
        "first_observation_date": "2011-08-17",
        "last_observation_date": "2011-09-20",
        "data_arc_in_days": 34,
        "observations_used": 66,
        "orbit_uncertainty": "6",
        "minimum_orbit_intersection": ".235277",
        "jupiter_tisserand_invariant": "3.592",
        "epoch_osculation": "2459000.5",
        "eccentricity": ".4186459030458399",
        "semi_major_axis": "2.13455503751222",
        "inclination": "7.263161834529117",
        "ascending_node_longitude": "346.4563910126557",
        "orbital_period": "1139.093733326011",
        "perihelion_distance": "1.24093231623187",
        "perihelion_argument": "336.2373922932138",
        "aphelion_distance": "3.02817775879257",
        "perihelion_time": "2459207.005542188421",
        "mean_anomaly": "294.7358404204699",
        "mean_motion": ".3160407168151518",
        "equinox": "J2000",
        "orbit_class": {
            "orbit_class_type": "AMO",
            "orbit_class_description": "Near-Earth asteroid orbits similar to that of 1221 Amor",
            "orbit_class_range": "1.017 AU < q (perihelion) < 1.3 AU"
        }
    },
    "is_sentry_object": false
}